OCEANSAT-2              
1 35931U 09051A   26178.20757331 -.00000232  00000+0 -13283-3 0  9996
2 35931  98.2319 164.0591 0016034 206.0247 154.0115 13.99661232880731
WORLDVIEW-2 (WV-2)      
1 35946U 09055A   26178.18418286  .00000142  00000+0  61406-4 0  9995
2 35946  98.4764 251.4963 0004341 176.6755 183.4462 14.37902119877081
SMOS                    
1 36036U 09059A   26178.12738465  .00000247  00000+0  92592-4 0  9994
2 36036  98.4425   5.3167 0001317  88.1898 271.9441 14.39777658874888
YAOGAN-7                
1 36110U 09069A   26178.17596926  .00000501  00000+0  76364-4 0  9999
2 36110  98.0061  63.9808 0024866  10.4768 349.6955 14.78019409891106
TANDEM-X                
1 36605U 10030A   26177.61088746  .00000281  00000+0  16557-4 0  9995
2 36605  97.4451 185.1838 0001781  93.2192 266.9247 15.19151603888078
CARTOSAT-2B             
1 36795U 10035A   26178.15178309  .00000478  00000+0  72351-4 0  9997
2 36795  97.9954 228.6381 0012009 152.0628 208.1230 14.78672283861325
YAOGAN-10               
1 36834U 10038A   26178.19188917  .00002275  00000+0  27056-3 0  9992
2 36834  97.8978 201.5165 0001768  86.1326   4.1549 14.85380916858696
COSMO-SKYMED 4          
1 37216U 10060A   26178.16526763  .00000145  00000+0  24819-4 0  9993
2 37216  97.8889   1.6206 0001480  84.2448 275.8934 14.82152245846042
RESOURCESAT-2           
1 37387U 11015A   26178.15376036  .00000085  00000+0  59101-4 0  9993
2 37387  98.7641 245.5266 0010547 224.0287 136.0051 14.21602089787592
HAIYANG-2A              
1 37781U 11043A   26178.23110686  .00000024  00000+0  71978-4 0  9997
2 37781  99.3404 180.6837 0004921  72.1259 288.0426 13.74026018748036
RASAT                   
1 37791U 11044D   26178.20077194  .00000667  00000+0  12407-3 0  9996
2 37791  98.0578 269.4448 0020958 157.0524 290.0257 14.68175916794655
SRMSAT                  
1 37841U 11058D   26178.20632691  .00000372  00000+0  58207-4 0  9998
2 37841  19.9735 358.8265 0011727 314.5586 200.6524 14.11577536759231
PLEIADES 1A             
1 38012U 11076F   26178.21452492  .00000359  00000+0  87070-4 0  9994
2 38012  98.1978 253.1828 0001775  90.5116 354.1998 14.58537021773450
ZIYUAN 1-02C (ZY 1-02C) 
1 38038U 11079A   26178.23030384  .00000464  00000+0  16683-3 0  9997
2 38038  98.4073 245.3289 0005139 280.7382 127.7440 14.38222626760651
ARIRANG-3 (KOMPSAT-3)   
1 38338U 12025B   26178.16041109  .00000434  00000+0  95376-4 0  9995
2 38338  98.1174 135.4484 0006815  84.5520 275.6459 14.62214454752803
EXACTVIEW-1 (ADS-1B)    
1 38709U 12039C   26178.21142897  .00000099  00000+0  62131-4 0  9994
2 38709  98.9787 295.8285 0011630 138.8890 221.3167 14.24987361724138
SPOT 6                  
1 38755U 12047A   26178.21368266  .00000267  00000+0  67235-4 0  9991
2 38755  98.2121 245.4053 0001330  75.1500 284.9846 14.58528098734512
PLEIADES 1B             
1 39019U 12068A   26178.16393046  .00000266  00000+0  67135-4 0  9994
2 39019  98.1949 253.0782 0001731  86.3916 273.7481 14.58566112722301
GOKTURK 2               
1 39030U 12073A   26178.18490410  .00000817  00000+0  12684-3 0  9998
2 39030  97.6819  15.1153 0001221  57.4300 302.7028 14.75553113725986
LANDSAT 8               
1 39084U 13008A   26178.18792205  .00000307  00000+0  78208-4 0  9992
2 39084  98.2299 248.2043 0001360  93.6970 266.4384 14.57100776699355
SARAL                   
1 39086U 13009A   26178.16635476  .00000080  00000+0  45268-4 0  9997
2 39086  98.5557   4.6071 0000730 228.6535 131.4586 14.32858250697037
GAOFEN-1                
1 39150U 13018A   26178.22805829  .00000705  00000+0  10825-3 0  9991
2 39150  97.9096 250.0919 0015913 231.1731 128.8059 14.76547108709724
VNREDSAT 1              
1 39160U 13021B   26178.19843139  .00000723  00000+0  14387-3 0  9995
2 39160  97.9081 231.2307 0001725  84.3978 275.7422 14.64867169701758
ARIRANG-5 (KOMPSAT-5)   
1 39227U 13042A   26178.14244809  .00001704  00000+0  12602-3 0  9994
2 39227  97.6189   4.7022 0005100  99.1584 261.0220 15.04513835705350
SKYSAT-A                
1 39418U 13066C   26178.11157503  .00002741  00000+0  15813-3 0  9992
2 39418  97.3810 227.1924 0019633 280.5528  79.3492 15.13025317689986
DUBAISAT-2              
1 39419U 13066D   26178.14194891  .00002915  00000+0  18179-3 0  9998
2 39419  97.4558 168.0254 0011310   9.3384 350.8054 15.10251387687891
GPM-CORE                
1 39574U 14009C   26178.17996639  .00011370  00000+0  24611-3 0  9994
2 39574  64.9722 274.6550 0011446 255.5488 104.4383 15.44777827699359
SENTINEL-1A             
1 39634U 14016A   26178.17319936  .00000027  00000+0  15468-4 0  9996
2 39634  98.1779 185.5600 0001374  84.4975 275.6381 14.59200622651471
KAZEOSAT 1              
1 39731U 14024A   26178.15183654  .00000176  00000+0  66641-4 0  9991
2 39731  98.3208 250.3514 0001235  75.8184 284.3143 14.42083777639993
ALOS-2                  
1 39766U 14029A   26178.21646502  .00001312  00000+0  18251-3 0  9993
2 39766  97.9226 275.2367 0001579  98.9809 261.1581 14.79466874653065
KAZEOSAT 2              
1 40010U 14033A   26178.19932924  .00000921  00000+0  11255-3 0  9997
2 40010  97.5407  17.2825 0007111 292.1064  67.9397 14.85482745650446
