OBJECT_NAME,OBJECT_ID,EPOCH,MEAN_MOTION,ECCENTRICITY,INCLINATION,RA_OF_ASC_NODE,ARG_OF_PERICENTER,MEAN_ANOMALY,EPHEMERIS_TYPE,CLASSIFICATION_TYPE,NORAD_CAT_ID,ELEMENT_SET_NO,REV_AT_EPOCH,BSTAR,MEAN_MOTION_DOT,MEAN_MOTION_DDOT
OCEANSAT-2,2009-051A,2026-06-27T04:58:54.333984,13.99661232,.0016034,98.2319,164.0591,206.0247,154.0115,0,U,35931,999,88073,-.13283E-3,-.232E-5,0
WORLDVIEW-2 (WV-2),2009-055A,2026-06-27T04:25:13.399104,14.37902119,.0004341,98.4764,251.4963,176.6755,183.4462,0,U,35946,999,87708,.61406E-4,.142E-5,0
SMOS,2009-059A,2026-06-27T03:03:26.033760,14.39777658,.0001317,98.4425,5.3167,88.1898,271.9441,0,U,36036,999,87488,.92592E-4,.247E-5,0
YAOGAN-7,2009-069A,2026-06-27T04:13:23.744064,14.78019409,.0024866,98.0061,63.9808,10.4768,349.6955,0,U,36110,999,89110,.76364E-4,.501E-5,0
TANDEM-X,2010-030A,2026-06-26T14:39:40.676544,15.19151603,.00017816,97.4451,185.1838,93.2192,266.9247,0,U,36605,999,88807,.16556648E-4,.281E-5,0
CARTOSAT-2B,2010-035A,2026-06-27T03:38:34.058976,14.78672283,.0012009,97.9954,228.6381,152.0628,208.1230,0,U,36795,999,86132,.72351E-4,.478E-5,0
YAOGAN-10,2010-038A,2026-06-27T04:36:19.224288,14.85380916,.0001768,97.8978,201.5165,86.1326,4.1549,0,U,36834,999,85869,.27056E-3,.2275E-4,0
COSMO-SKYMED 4,2010-060A,2026-06-27T03:57:59.123232,14.82152245,.000148,97.8889,1.6206,84.2448,275.8934,0,U,37216,999,84604,.24819E-4,.145E-5,0
RESOURCESAT-2,2011-015A,2026-06-27T03:41:24.895104,14.21602089,.0010547,98.7641,245.5266,224.0287,136.0051,0,U,37387,999,78759,.59101E-4,.85E-6,0
HAIYANG-2A,2011-043A,2026-06-27T05:32:47.632704,13.74026018,.0004921,99.3404,180.6837,72.1259,288.0426,0,U,37781,999,74803,.71978E-4,.24E-6,0
RASAT,2011-044D,2026-06-27T04:49:06.695616,14.68175916,.0020958,98.0578,269.4448,157.0524,290.0257,0,U,37791,999,79465,.12407E-3,.667E-5,0
SRMSAT,2011-058D,2026-06-27T04:57:06.645024,14.11577536,.0011727,19.9735,358.8265,314.5586,200.6524,0,U,37841,999,75923,.58207E-4,.372E-5,0
PLEIADES 1A,2011-076F,2026-06-27T05:08:54.953088,14.58537021,.0001775,98.1978,253.1828,90.5116,354.1998,0,U,38012,999,77345,.8707E-4,.359E-5,0
ZIYUAN 1-02C (ZY 1-02C),2011-079A,2026-06-27T05:31:38.251776,14.38222626,.0005139,98.4073,245.3289,280.7382,127.7440,0,U,38038,999,76065,.16683E-3,.464E-5,0
ARIRANG-3 (KOMPSAT-3),2012-025B,2026-06-27T03:50:59.518176,14.62214454,.0006815,98.1174,135.4484,84.5520,275.6459,0,U,38338,999,75280,.95376E-4,.434E-5,0
EXACTVIEW-1 (ADS-1B),2012-039C,2026-06-27T05:04:27.463008,14.24987361,.001163,98.9787,295.8285,138.8890,221.3167,0,U,38709,999,72413,.62131E-4,.99E-6,0
SPOT 6,2012-047A,2026-06-27T05:07:42.181824,14.58528098,.000133,98.2121,245.4053,75.1500,284.9846,0,U,38755,999,73451,.67235E-4,.267E-5,0
PLEIADES 1B,2012-068A,2026-06-27T03:56:03.591744,14.58566112,.0001731,98.1949,253.0782,86.3916,273.7481,0,U,39019,999,72230,.67135E-4,.266E-5,0
GOKTURK 2,2012-073A,2026-06-27T04:26:15.714240,14.75553113,.0001221,97.6819,15.1153,57.4300,302.7028,0,U,39030,999,72598,.12684E-3,.817E-5,0
LANDSAT 8,2013-008A,2026-06-27T04:30:36.465120,14.57100776,.000136,98.2299,248.2043,93.6970,266.4384,0,U,39084,999,69935,.78208E-4,.307E-5,0
SARAL,2013-009A,2026-06-27T03:59:33.051264,14.32858250,.000073,98.5557,4.6071,228.6535,131.4586,0,U,39086,999,69703,.45268E-4,.8E-6,0
GAOFEN-1,2013-018A,2026-06-27T05:28:24.236256,14.76547108,.0015913,97.9096,250.0919,231.1731,128.8059,0,U,39150,999,70972,.10825E-3,.705E-5,0
VNREDSAT 1,2013-021B,2026-06-27T04:45:44.472096,14.64867169,.0001725,97.9081,231.2307,84.3978,275.7422,0,U,39160,999,70175,.14387E-3,.723E-5,0
ARIRANG-5 (KOMPSAT-5),2013-042A,2026-06-27T03:25:07.514976,15.04513835,.00051,97.6189,4.7022,99.1584,261.0220,0,U,39227,999,70535,.12602E-3,.1704E-4,0
SKYSAT-A,2013-066C,2026-06-27T02:40:40.082592,15.13025317,.0019633,97.3810,227.1924,280.5528,79.3492,0,U,39418,999,68998,.15813E-3,.2741E-4,0
DUBAISAT-2,2013-066D,2026-06-27T03:24:24.385824,15.10251387,.001131,97.4558,168.0254,9.3384,350.8054,0,U,39419,999,68789,.18179E-3,.2915E-4,0
GPM-CORE,2014-009C,2026-06-27T04:19:09.096096,15.44777827,.0011446,64.9722,274.6550,255.5488,104.4383,0,U,39574,999,69935,.24611E-3,.1137E-3,0
SENTINEL-1A,2014-016A,2026-06-27T04:09:24.424704,14.59200622,.0001374,98.1779,185.5600,84.4975,275.6381,0,U,39634,999,65147,.15468E-4,.27E-6,0
KAZEOSAT 1,2014-024A,2026-06-27T03:38:38.677056,14.42083777,.0001235,98.3208,250.3514,75.8184,284.3143,0,U,39731,999,63999,.66641E-4,.176E-5,0
ALOS-2,2014-029A,2026-06-27T05:11:42.577728,14.79466874,.0001579,97.9226,275.2367,98.9809,261.1581,0,U,39766,999,65306,.18251E-3,.1312E-4,0
KAZEOSAT 2,2014-033A,2026-06-27T04:47:02.046336,14.85482745,.0007111,97.5407,17.2825,292.1064,67.9397,0,U,40010,999,65044,.11255E-3,.921E-5,0
